CCSDS_OMM_VERS = 2.0
CREATION_DATE  = 
ORIGINATOR     = 

OBJECT_NAME    = SL-16 R/B
OBJECT_ID      = 1998-043G
CENTER_NAME    = EARTH
REF_FRAME      = TEME
TIME_SYSTEM    = UTC
MEAN_ELEMENT_THEORY = SGP/SGP4

EPOCH          = 2026-01-11T14:50:19.284000
MEAN_MOTION    = 14.26033963
ECCENTRICITY   = .00098606
INCLINATION    = 98.8165
RA_OF_ASC_NODE = 324.6100
ARG_OF_PERICENTER = 173.8806
MEAN_ANOMALY   = 186.2495

EPHEMERIS_TYPE = 0
CLASSIFICATION_TYPE = U
NORAD_CAT_ID   = 25400
ELEMENT_SET_NO = 999
REV_AT_EPOCH   = 43085
BSTAR          = .45741916E-4
MEAN_MOTION_DOT = .64E-6
MEAN_MOTION_DDOT = 0

CCSDS_OMM_VERS = 2.0
CREATION_DATE  = 
ORIGINATOR     = 

OBJECT_NAME    = SL-16 R/B
OBJECT_ID      = 1998-045B
CENTER_NAME    = EARTH
REF_FRAME      = TEME
TIME_SYSTEM    = UTC
MEAN_ELEMENT_THEORY = SGP/SGP4

EPOCH          = 2026-01-11T12:02:09.803904
MEAN_MOTION    = 14.16180119
ECCENTRICITY   = .00053543
INCLINATION    = 71.0122
RA_OF_ASC_NODE = 301.8387
ARG_OF_PERICENTER = 123.2159
MEAN_ANOMALY   = 236.9478

EPHEMERIS_TYPE = 0
CLASSIFICATION_TYPE = U
NORAD_CAT_ID   = 25407
ELEMENT_SET_NO = 999
REV_AT_EPOCH   = 41900
BSTAR          = -.25259672E-4
MEAN_MOTION_DOT = -.98E-6
MEAN_MOTION_DDOT = 0

CCSDS_OMM_VERS = 2.0
CREATION_DATE  = 
ORIGINATOR     = 

OBJECT_NAME    = ISS (ZARYA)
OBJECT_ID      = 1998-067A
CENTER_NAME    = EARTH
REF_FRAME      = TEME
TIME_SYSTEM    = UTC
MEAN_ELEMENT_THEORY = SGP/SGP4

EPOCH          = 2026-01-11T09:40:05.985984
MEAN_MOTION    = 15.49235693
ECCENTRICITY   = .00076976
INCLINATION    = 51.6334
RA_OF_ASC_NODE = 355.6191
ARG_OF_PERICENTER = 6.1669
MEAN_ANOMALY   = 353.9413

EPHEMERIS_TYPE = 0
CLASSIFICATION_TYPE = U
NORAD_CAT_ID   = 25544
ELEMENT_SET_NO = 999
REV_AT_EPOCH   = 54745
BSTAR          = .20258651E-3
MEAN_MOTION_DOT = .10825E-3
MEAN_MOTION_DDOT = 0

CCSDS_OMM_VERS = 2.0
CREATION_DATE  = 
ORIGINATOR     = 

OBJECT_NAME    = CZ-4B R/B
OBJECT_ID      = 1999-025C
CENTER_NAME    = EARTH
REF_FRAME      = TEME
TIME_SYSTEM    = UTC
MEAN_ELEMENT_THEORY = SGP/SGP4

EPOCH          = 2026-01-11T16:07:11.267616
MEAN_MOTION    = 14.18251832
ECCENTRICITY   = .00377296
INCLINATION    = 98.6729
RA_OF_ASC_NODE = 57.2761
ARG_OF_PERICENTER = 147.6486
MEAN_ANOMALY   = 322.3532

EPHEMERIS_TYPE = 0
CLASSIFICATION_TYPE = U
NORAD_CAT_ID   = 25732
ELEMENT_SET_NO = 999
REV_AT_EPOCH   = 38008
BSTAR          = .50360432E-4
MEAN_MOTION_DOT = .61E-6
MEAN_MOTION_DDOT = 0

CCSDS_OMM_VERS = 2.0
CREATION_DATE  = 
ORIGINATOR     = 

OBJECT_NAME    = OKEAN-O
OBJECT_ID      = 1999-039A
CENTER_NAME    = EARTH
REF_FRAME      = TEME
TIME_SYSTEM    = UTC
MEAN_ELEMENT_THEORY = SGP/SGP4

EPOCH          = 2026-01-11T14:25:40.278432
MEAN_MOTION    = 14.80223156
ECCENTRICITY   = .0001616
INCLINATION    = 97.9559
RA_OF_ASC_NODE = 72.0388
ARG_OF_PERICENTER = 110.2645
MEAN_ANOMALY   = 249.8740

EPHEMERIS_TYPE = 0
CLASSIFICATION_TYPE = U
NORAD_CAT_ID   = 25860
ELEMENT_SET_NO = 999
REV_AT_EPOCH   = 42594
BSTAR          = .1105631E-3
MEAN_MOTION_DOT = .788E-5
MEAN_MOTION_DDOT = 0

CCSDS_OMM_VERS = 2.0
CREATION_DATE  = 
ORIGINATOR     = 

OBJECT_NAME    = SL-16 R/B
OBJECT_ID      = 1999-039B
CENTER_NAME    = EARTH
REF_FRAME      = TEME
TIME_SYSTEM    = UTC
MEAN_ELEMENT_THEORY = SGP/SGP4

EPOCH          = 2026-01-11T15:14:39.205536
MEAN_MOTION    = 14.81637927
ECCENTRICITY   = .00161682
INCLINATION    = 98.0083
RA_OF_ASC_NODE = 70.7822
ARG_OF_PERICENTER = 83.4988
MEAN_ANOMALY   = 276.8065

EPHEMERIS_TYPE = 0
CLASSIFICATION_TYPE = U
NORAD_CAT_ID   = 25861
ELEMENT_SET_NO = 999
REV_AT_EPOCH   = 42841
BSTAR          = .77687221E-4
MEAN_MOTION_DOT = .558E-5
MEAN_MOTION_DDOT = 0

CCSDS_OMM_VERS = 2.0
CREATION_DATE  = 
ORIGINATOR     = 

OBJECT_NAME    = DELTA 2 R/B
OBJECT_ID      = 1999-041E
CENTER_NAME    = EARTH
REF_FRAME      = TEME
TIME_SYSTEM    = UTC
MEAN_ELEMENT_THEORY = SGP/SGP4

EPOCH          = 2026-01-11T14:14:32.713152
MEAN_MOTION    = 14.11533542
ECCENTRICITY   = .05037627
INCLINATION    = 51.7599
RA_OF_ASC_NODE = 169.2636
ARG_OF_PERICENTER = 179.7632
MEAN_ANOMALY   = 180.3629

EPHEMERIS_TYPE = 0
CLASSIFICATION_TYPE = U
NORAD_CAT_ID   = 25876
ELEMENT_SET_NO = 999
REV_AT_EPOCH   = 35496
BSTAR          = .53676036E-3
MEAN_MOTION_DOT = .3105E-4
MEAN_MOTION_DDOT = 0

CCSDS_OMM_VERS = 2.0
CREATION_DATE  = 
ORIGINATOR     = 

OBJECT_NAME    = HELIOS 1B
OBJECT_ID      = 1999-064A
CENTER_NAME    = EARTH
REF_FRAME      = TEME
TIME_SYSTEM    = UTC
MEAN_ELEMENT_THEORY = SGP/SGP4

EPOCH          = 2026-01-11T16:09:39.027168
MEAN_MOTION    = 14.87429975
ECCENTRICITY   = .00004346
INCLINATION    = 98.1743
RA_OF_ASC_NODE = 272.2285
ARG_OF_PERICENTER = 122.0436
MEAN_ANOMALY   = 238.0822

EPHEMERIS_TYPE = 0
CLASSIFICATION_TYPE = U
NORAD_CAT_ID   = 25977
ELEMENT_SET_NO = 999
REV_AT_EPOCH   = 67678
BSTAR          = .23438456E-3
MEAN_MOTION_DOT = .2063E-4
MEAN_MOTION_DDOT = 0

CCSDS_OMM_VERS = 2.0
CREATION_DATE  = 
ORIGINATOR     = 

OBJECT_NAME    = TERRA
OBJECT_ID      = 1999-068A
CENTER_NAME    = EARTH
REF_FRAME      = TEME
TIME_SYSTEM    = UTC
MEAN_ELEMENT_THEORY = SGP/SGP4

EPOCH          = 2026-01-11T16:10:39.501120
MEAN_MOTION    = 14.60941811
ECCENTRICITY   = .00025819
INCLINATION    = 97.9706
RA_OF_ASC_NODE = 67.2536
ARG_OF_PERICENTER = 32.2475
MEAN_ANOMALY   = 78.4025

EPHEMERIS_TYPE = 0
CLASSIFICATION_TYPE = U
NORAD_CAT_ID   = 25994
ELEMENT_SET_NO = 999
REV_AT_EPOCH   = 38675
BSTAR          = .10100914E-3
MEAN_MOTION_DOT = .45E-5
MEAN_MOTION_DDOT = 0

CCSDS_OMM_VERS = 2.0
CREATION_DATE  = 
ORIGINATOR     = 

OBJECT_NAME    = SL-16 R/B
OBJECT_ID      = 2000-006B
CENTER_NAME    = EARTH
REF_FRAME      = TEME
TIME_SYSTEM    = UTC
MEAN_ELEMENT_THEORY = SGP/SGP4

EPOCH          = 2026-01-11T15:26:23.360352
MEAN_MOTION    = 14.15815074
ECCENTRICITY   = .00190003
INCLINATION    = 71.0007
RA_OF_ASC_NODE = 217.7829
ARG_OF_PERICENTER = 268.6694
MEAN_ANOMALY   = 91.2253

EPHEMERIS_TYPE = 0
CLASSIFICATION_TYPE = U
NORAD_CAT_ID   = 26070
ELEMENT_SET_NO = 999
REV_AT_EPOCH   = 34048
BSTAR          = -.87387632E-4
MEAN_MOTION_DOT = -.22E-5
MEAN_MOTION_DDOT = 0

CCSDS_OMM_VERS = 2.0
CREATION_DATE  = 
ORIGINATOR     = 

OBJECT_NAME    = TITAN 4B R/B
OBJECT_ID      = 2000-047B
CENTER_NAME    = EARTH
REF_FRAME      = TEME
TIME_SYSTEM    = UTC
MEAN_ELEMENT_THEORY = SGP/SGP4

EPOCH          = 2026-01-11T15:19:28.627392
MEAN_MOTION    = 15.09031681
ECCENTRICITY   = .00371668
INCLINATION    = 67.9879
RA_OF_ASC_NODE = 200.8693
ARG_OF_PERICENTER = 107.3771
MEAN_ANOMALY   = 253.1448

EPHEMERIS_TYPE = 0
CLASSIFICATION_TYPE = U
NORAD_CAT_ID   = 26474
ELEMENT_SET_NO = 999
REV_AT_EPOCH   = 38430
BSTAR          = .23367455E-3
MEAN_MOTION_DOT = .3631E-4
MEAN_MOTION_DDOT = 0

CCSDS_OMM_VERS = 2.0
CREATION_DATE  = 
ORIGINATOR     = 

OBJECT_NAME    = ENVISAT
OBJECT_ID      = 2002-009A
CENTER_NAME    = EARTH
REF_FRAME      = TEME
TIME_SYSTEM    = UTC
MEAN_ELEMENT_THEORY = SGP/SGP4

EPOCH          = 2026-01-11T14:49:19.312032
MEAN_MOTION    = 14.39012418
ECCENTRICITY   = .00011378
INCLINATION    = 98.3639
RA_OF_ASC_NODE = 326.6073
ARG_OF_PERICENTER = 91.3580
MEAN_ANOMALY   = 81.6718

EPHEMERIS_TYPE = 0
CLASSIFICATION_TYPE = U
NORAD_CAT_ID   = 27386
ELEMENT_SET_NO = 999
REV_AT_EPOCH   = 25096
BSTAR          = .56660705E-4
MEAN_MOTION_DOT = .132E-5
MEAN_MOTION_DDOT = 0

