SL-16 R/B               
1 25400U 98043G   26011.61827875  .00000064  00000+0  45742-4 0  9994
2 25400  98.8165 324.6100 0009860 173.8806 186.2495 14.26033963430854
SL-16 R/B               
1 25407U 98045B   26011.50150236 -.00000098  00000+0 -25260-4 0  9993
2 25407  71.0122 301.8387 0005354 123.2159 236.9478 14.16180119419008
ISS (ZARYA)             
1 25544U 98067A   26011.40284706  .00010825  00000+0  20259-3 0  9997
2 25544  51.6334 355.6191 0007697   6.1669 353.9413 15.49235693547451
CZ-4B R/B               
1 25732U 99025C   26011.67165819  .00000061  00000+0  50360-4 0  9991
2 25732  98.6729  57.2761 0037729 147.6486 322.3532 14.18251832380088
OKEAN-O                 
1 25860U 99039A   26011.60116063  .00000788  00000+0  11056-3 0  9992
2 25860  97.9559  72.0388 0001616 110.2645 249.8740 14.80223156425948
SL-16 R/B               
1 25861U 99039B   26011.63517599  .00000558  00000+0  77687-4 0  9993
2 25861  98.0083  70.7822 0016168  83.4988 276.8065 14.81637927428411
DELTA 2 R/B             
1 25876U 99041E   26011.59343418  .00003105  00000+0  53676-3 0  9996
2 25876  51.7599 169.2636 0503762 179.7632 180.3629 14.11533542354962
HELIOS 1B               
1 25977U 99064A   26011.67336837  .00002063  00000+0  23438-3 0  9994
2 25977  98.1743 272.2285 0000434 122.0436 238.0822 14.87429975676786
TERRA                   
1 25994U 99068A   26011.67406830  .00000450  00000+0  10101-3 0  9999
2 25994  97.9706  67.2536 0002581  32.2475  78.4025 14.60941811386757
SL-16 R/B               
1 26070U 00006B   26011.64332593 -.00000220  00000+0 -87388-4 0  9999
2 26070  71.0007 217.7829 0019000 268.6694  91.2253 14.15815074340486
TITAN 4B R/B            
1 26474U 00047B   26011.63852578  .00003631  00000+0  23367-3 0  9994
2 26474  67.9879 200.8693 0037166 107.3771 253.1448 15.09031681384307
ENVISAT                 
1 27386U 02009A   26011.61758463  .00000132  00000+0  56661-4 0  9990
2 27386  98.3639 326.6073 0001137  91.3580  81.6718 14.39012418250967
